[{"OBJECT_NAME":"STARLINK-3072","OBJECT_ID":"2021-082Z","EPOCH":"2026-03-09T21:37:49.965600","MEAN_MOTION":14.98311084,"ECCENTRICITY":0.00025109,"INCLINATION":69.9991,"RA_OF_ASC_NODE":253.9202,"ARG_OF_PERICENTER":265.2533,"MEAN_ANOMALY":94.8339,"EPHEMERIS_TYPE":0,"CLASSIFICATION_TYPE":"U","NORAD_CAT_ID":49153,"ELEMENT_SET_NO":999,"REV_AT_EPOCH":24820,"BSTAR":-3.4057024e-5,"MEAN_MOTION_DOT":-4.99e-6,"MEAN_MOTION_DDOT":0},{"OBJECT_NAME":"DMSP 5D-2 F12 DEB","OBJECT_ID":"1994-057D","EPOCH":"2026-03-09T16:53:24.857088","MEAN_MOTION":14.9537003,"ECCENTRICITY":0.00045084,"INCLINATION":98.0659,"RA_OF_ASC_NODE":110.2499,"ARG_OF_PERICENTER":136.2971,"MEAN_ANOMALY":344.9264,"EPHEMERIS_TYPE":0,"CLASSIFICATION_TYPE":"U","NORAD_CAT_ID":23250,"ELEMENT_SET_NO":999,"REV_AT_EPOCH":65299,"BSTAR":0.0022486615,"MEAN_MOTION_DOT":0.00024839,"MEAN_MOTION_DDOT":0}]
